FLOCK 4Y-15             
1 55068U 23001BM  23023.49954754  .00010380  00000+0  58015-3 0  9990
2 55068  97.4989  85.2983 0016578 145.8238 214.4064 15.13562654  3164
FLOCK 4Y-9              
1 55069U 23001BN  23023.49967664  .00009810  00000+0  54909-3 0  9999
2 55069  97.5024  85.3124 0015703 153.2767 206.9277 15.13540598  3168
FLOCK 4Y-26             
1 55070U 23001BP  23023.56565634  .00007412  00000+0  41558-3 0  9992
2 55070  97.4985  85.3626 0016291 143.5991 216.6351 15.13560670  3171
FLOCK 4Y-8              
1 55071U 23001BQ  23023.50001052  .00010412  00000+0  58257-3 0  9994
2 55071  97.5000  85.3000 0016431 147.7456 212.4783 15.13527048  3169
2023-001BR              
1 55072U 23001BR  23023.76417295  .00012991  00000+0  72396-3 0  9997
2 55072  97.5046  85.5768 0016303 146.7812 213.4446 15.13615746  3201
TAUSAT-2                
1 55073U 23001BS  23022.98372400  .00013447  00000+0  73500-3 0  9994
2 55073  97.5026  84.7990 0018020 131.1123 307.0591 15.14273590  3084
FLOCK 4Y-2              
1 55074U 23001BT  23023.76306807  .00010303  00000+0  57441-3 0  9994
2 55074  97.5030  85.5758 0016213 151.1346 209.0786 15.13660580  3201
FLOCK 4Y-36             
1 55075U 23001BU  23023.49881257  .00010953  00000+0  61091-3 0  9999
2 55075  97.5009  85.3039 0016419 150.1028 210.1145 15.13626319  3161
YAM-5                   
1 55076U 23001BV  23023.30533410  .00006233  00000+0  35427-3 0  9995
2 55076  97.5013  85.1033 0015712 148.7357 211.4812 15.13145454  3130
FLOCK 4Y-21             
1 55077U 23001BW  23023.56467053  .00010333  00000+0  57622-3 0  9990
2 55077  97.5035  85.3810 0016545 149.9514 210.2671 15.13645877  3171
FLOCK 4Y-31             
1 55078U 23001BX  23023.76287725  .00010025  00000+0  55905-3 0  9999
2 55078  97.4993  85.5622 0016771 143.6729 216.5644 15.13650010  3205
FLOCK 4Y-13             
1 55079U 23001BY  23023.76299341  .00009877  00000+0  55118-3 0  9996
2 55079  97.5025  85.5728 0016824 148.4624 211.7620 15.13629876  3203
FLOCK 4Y-23             
1 55080U 23001BZ  23023.56424396  .00009999  00000+0  55725-3 0  9995
2 55080  97.5000  85.3690 0017033 146.7687 213.4617 15.13669167  3175
2023-001CA              
1 55081U 23001CA  23023.82918166  .00009111  00000+0  50901-3 0  9995
2 55081  97.5038  85.6413 0017059 145.4178 214.8166 15.13608414  3219
FLOCK 4Y-34             
1 55082U 23001CB  23023.49815505  .00010292  00000+0  57342-3 0  9990
2 55082  97.5009  85.3072 0016872 145.6250 214.6077 15.13674888  3162
FLOCK 4Y-27             
1 55083U 23001CC  23022.77091858  .00011388  00000+0  63430-3 0  9990
2 55083  97.5006  84.5888 0016961 149.7198 210.5017 15.13657793  3054
2023-001CD              
1 55084U 23001CD  23023.76187766  .00009720  00000+0  54112-3 0  9999
2 55084  97.4987  85.5627 0016753 139.4508 220.7975 15.13720394  3205
2023-001CE              
1 55085U 23001CE  23023.76073689  .00014667  00000+0  80974-3 0  9999
2 55085  97.4994  85.5657 0017006 142.3875 217.8550 15.13910445  3203
2023-001CF              
1 55086U 23001CF  23023.76048566  .00014153  00000+0  78111-3 0  9996
2 55086  97.5024  85.5749 0017009 141.8974 218.3464 15.13929886  3207
SPACEBEE-167            
1 55087U 23001CG  23023.75981158  .00017259  00000+0  94867-3 0  9995
2 55087  97.5004  85.5701 0016901 141.3732 218.8712 15.14033548  3204
2023-001CH              
1 55088U 23001CH  23023.75992516  .00015233  00000+0  83887-3 0  9996
2 55088  97.5065  85.5858 0017182 142.4648 217.7787 15.13989934  3203
SPACEBEE-163            
1 55089U 23001CJ  23023.75907000  .00019526  00000+0  10705-2 0  9998
2 55089  97.5000  85.5708 0016757 141.4039 218.8394 15.14100679  3205
2023-001CK              
1 55090U 23001CK  23023.75984770  .00012871  00000+0  71046-3 0  9991
2 55090  97.5026  85.5769 0017606 144.2499 215.9915 15.13938667  3209
SPACEBEE-164            
1 55091U 23001CL  23023.75852162  .00018013  00000+0  98657-3 0  9992
2 55091  97.5001  85.5712 0017287 140.9077 219.3407 15.14146390  3200
SPACEBEE-166            
1 55092U 23001CM  23023.75728140  .00018470  00000+0  10070-2 0  9990
2 55092  97.5004  85.5727 0019111 142.4679 217.7891 15.14273654  3206
2023-001CN              
1 55093U 23001CN  23022.76784604  .00010085  00000+0  55829-3 0  9994
2 55093  97.5006  84.5939 0017474 142.7740 217.4706 15.13899977  3051
SPACEBEE-165            
1 55094U 23001CP  23023.75763694  .00019280  00000+0  10535-2 0  9991
2 55094  97.4998  85.5709 0016307 140.0333 220.2102 15.14228705  3205
SPACEBEE-162            
1 55095U 23001CQ  23023.75764674  .00017983  00000+0  98296-3 0  9990
2 55095  97.4999  85.5720 0017499 140.4891 219.7620 15.14213027  3205
SPACEBEE-161            
1 55096U 23001CR  23023.75747542  .00018145  00000+0  99133-3 0  9998
2 55096  97.5000  85.5723 0017505 140.3454 219.9061 15.14228624  3205
SPACEBEE-160            
1 55097U 23001CS  23023.75721573  .00018424  00000+0  10057-2 0  9992
2 55097  97.4999  85.5726 0017661 140.3575 219.8952 15.14255143  3206
BDSAT-2                 
1 55098U 23001CT  23023.75822254  .00013499  00000+0  74196-3 0  9993
2 55098  97.5055  85.5861 0017855 140.5144 219.7393 15.14076389  3201
SPACEBEE-156            
1 55099U 23001CU  23023.49280466  .00018455  00000+0  10075-2 0  9990
2 55099  97.5001  85.3123 0017603 141.3077 218.9419 15.14250321  3162
SPACEBEE-158            
1 55100U 23001CV  23023.75710563  .00015394  00000+0  84085-3 0  9990
2 55100  97.4997  85.5721 0018006 140.9343 219.3192 15.14265565  3207
SPACEBEE-159            
1 55101U 23001CW  23023.75613265  .00020735  00000+0  11260-2 0  9991
2 55101  97.5000  85.5734 0018637 139.8653 220.3959 15.14397445  3205
SPACEBEE-157            
1 55102U 23001CX  23023.75647386  .00020335  00000+0  11065-2 0  9992
2 55102  97.4997  85.5732 0017033 143.1946 217.0458 15.14356083  3200
2023-001CY              
1 55103U 23001CY  23023.75841148  .00006974  00000+0  38675-3 0  9995
2 55103  97.5034  85.5801 0018209 139.0524 221.2079 15.13943400  3203
MARIO                   
1 55123U 98067UQ  23022.55880236  .00099819  00000+0  14941-2 0  9998
2 55123  51.6423 329.5049 0000752  26.9715 333.1314 15.54167923  3818
NUTSAT                  
1 55124U 98067UR  23023.13115006  .00150858  00000+0  21322-2 0  9992
2 55124  51.6415 326.5773 0000821 162.7851 197.3168 15.55512989  3890
LORIS                   
1 55125U 98067US  23022.88475981  .00076431  00000+0  11747-2 0  9999
2 55125  51.6419 327.9316 0001782 351.1164   8.9795 15.53560920  3878
ORCASAT                 
1 55126U 98067UT  23023.40204495  .00071254  00000+0  11074-2 0  9990
2 55126  51.6425 325.3862 0001878 349.7674  10.3278 15.53283355  3955
DANTESAT                
1 55127U 98067UU  23023.52930884  .00864554  00000+0  39205-2 0  9991
2 55127  51.6386 322.4776 0013072 172.9670 187.1517 15.81004531  3963
TJREVERB                
1 55128U 98067UV  23022.56754600  .00075277  00000+0  11733-2 0  9997
2 55128  51.6423 329.5623 0002741 315.0196  45.0572 15.53178429  3813
SPORT                   
1 55129U 98067UW  23022.57609570  .00043726  00000+0  71881-3 0  9999
2 55129  51.6429 329.6181 0001709 299.5091  60.5728 15.51934079  3817
PETITSAT                
1 55130U 98067UX  23022.56993004  .00124599  00000+0  18883-2 0  9998
2 55130  51.6425 329.5775 0001512 232.8184 127.2669 15.53713911  3769
SHIJIAN-23 (SJ-23)      
1 55131U 23002A   23023.69907486 -.00000323  00000+0  00000+0 0  9998
2 55131   0.5176  95.2350 0015094 232.6253 183.6160  0.99401448   253
CZ-7A R/B               
1 55132U 23002B   23023.44793582  .00170274 -52707-7  29557-2 0  9995
2 55132  16.4975  92.7522 7174543 190.4180 137.1029  2.46740441   354
2023-003A               
1 55133U 23003A   23023.77731302  .00026323  00000+0  13030-2 0  9999
2 55133  97.2708 113.3001 0006947 205.8163 270.0580 15.17745356  2202
2023-003B               
1 55134U 23003B   23023.87871551  .00011660  00000+0  52385-3 0  9997
2 55134  97.2710 113.4619 0012323 236.2593 232.9690 15.21233608  2219
2023-003C               
1 55135U 23003C   23023.81300031  .00010307  00000+0  46131-3 0  9991
2 55135  97.2739 113.4083 0012160 241.0014 238.2401 15.21396930  2225
2023-003D               
1 55136U 23003D   23023.81119101  .00016999  00000+0  75236-3 0  9999
2 55136  97.2709 113.4047 0011801 244.1536 234.1467 15.21665029  2211
2023-003E               
1 55137U 23003E   23023.81135063  .00010293  00000+0  45892-3 0  9991
2 55137  97.2684 113.3991 0012317 243.4631 233.4471 15.21525519  2218
ONEWEB-0532             
1 55140U 23004A   23023.06163189  .00005609  00000+0  56321-3 0  9997
2 55140  86.5116 280.0929 0011955 165.9754 194.1808 14.91062494  2061
ONEWEB-0533             
1 55141U 23004B   23023.46300180  .00006066  00000+0  60671-3 0  9997
2 55141  86.5110 279.9105 0012551 165.3616 194.7977 14.91227157  2122
ONEWEB-0541             
1 55142U 23004C   23023.80527497 -.00251246  00000+0 -28654-1 0  9995
2 55142  86.5355 279.7750 0009499 163.2420 196.9122 14.87644966  2172
ONEWEB-0543             
1 55143U 23004D   23023.19842338  .00004463  00000+0  45108-3 0  9992
2 55143  86.5138 280.0386 0010358 165.6138 194.5386 14.90771439  2086
ONEWEB-0544             
1 55144U 23004E   23023.52564487  .00005762  00000+0  56875-3 0  9992
2 55144  86.5106 279.8814 0014111 172.2616 187.8832 14.91728808  2130
ONEWEB-0560             
1 55145U 23004F   23023.52538487  .00006131  00000+0  60486-3 0  9998
2 55145  86.5123 279.8809 0014155 172.8539 187.2894 14.91757413  2138
ONEWEB-0565             
1 55146U 23004G   23023.45609010  .00006538  00000+0  64109-3 0  9999
2 55146  86.5100 279.9094 0014364 177.4218 182.7087 14.92010390  2128
ONEWEB-0567             
1 55147U 23004H   23023.45662699  .00006797  00000+0  66759-3 0  9992
2 55147  86.5098 279.9084 0014300 176.2948 183.8389 14.91948599  2128
